ORBCOMM FM24 [-]        
1 25478U 98053D   24056.59682694  .00002087  00000+0  77047-3 0  9991
2 25478  45.0100   8.4757 0002623 331.2058  28.8644 14.35299692329044
ORBCOMM FM25 [-]        
1 25479U 98053E   24056.91019577  .00002072  00000+0  76553-3 0  9997
2 25479  45.0092   5.2361 0004679 359.2065   0.8774 14.35284080329108
ORBCOMM FM26 [-]        
1 25480U 98053F   24056.26252388  .00001711  00000+0  64718-3 0  9995
2 25480  45.0094   2.1096 0006197  20.6783 339.4314 14.34775607328958
ORBCOMM FM27 [+]        
1 25481U 98053G   24056.96689371  .00002137  00000+0  78840-3 0  9993
2 25481  45.0074   5.2317 0001311 309.0752  50.9978 14.35260232329080
ORBCOMM FM28 [-]        
1 25482U 98053H   24056.76794163  .00001561  00000+0  58393-3 0  9999
2 25482  45.0069 304.8956 0004265  57.1277 302.9981 14.35720738329688
ORBCOMM FM30 [-]        
1 25980U 99065A   24056.71914004  .00001716  00000+0  64715-3 0  9996
2 25980  45.0307 185.4120 0006557 149.3751 210.7480 14.34917531265811
ORBCOMM FM31 [-]        
1 25981U 99065B   24057.03314825  .00001872  00000+0  70134-3 0  9993
2 25981  45.0224 177.6805 0004244 179.9957 180.0890 14.34932756266384
ORBCOMM FM32 [+]        
1 25982U 99065C   24057.10046707  .00001721  00000+0  66217-3 0  9993
2 25982  45.0149 190.6265 0006608 174.2225 185.8699 14.33899321266196
